RESOURCESAT-2           
1 37387U 11015A   25172.51631723  .00000057  00000+0  46522-4 0  9995
2 37387  98.8081 236.6181 0006168 166.1124 194.0224 14.21575435735467
YOUTHSAT                
1 37388U 11015B   25172.47038809  .00000147  00000+0  79790-4 0  9990
2 37388  98.3250 158.7570 0013844 325.8434 202.8681 14.25399280736770
APRIZESAT 6             
1 37793U 11044F   25171.49280914  .00000538  00000+0  84859-4 0  9995
2 37793  98.2600  69.4191 0044138 160.7282  13.8603 14.76094796743774
JUGNU                   
1 37839U 11058B   25172.54085574  .00000404  00000+0  71930-4 0  9991
2 37839  19.9622 339.1991 0018659  53.7757 351.8289 14.13607266708040
SRMSAT                  
1 37841U 11058D   25171.14574866  .00000387  00000+0  66205-4 0  9995
2 37841  19.9720  90.6061 0011854 180.6290 318.9373 14.11439399706607
SUOMI NPP               
1 37849U 11061A   25172.52413605  .00000046  00000+0  42631-4 0  9992
2 37849  98.7581 111.6600 0000408 324.9040  35.2109 14.19541277707263
YAOGAN-12               
1 37875U 11066B   25172.48759592  .00005470  00000+0  23142-3 0  9990
2 37875  97.1658 222.8489 0011772  74.6065 285.6473 15.23524893757656
ZIYUAN 3-1 (ZY 3-1)     
1 38046U 12001A   25172.51965532  .00016094  00000+0  25720-3 0  9996
2 38046  97.1985 237.1691 0002155 212.2549 147.8573 15.53245059747887
BEIDOU-2 M4             
1 38251U 12018B   25171.21255891 -.00000076  00000+0  00000+0 0  9992
2 38251  55.9679 316.2935 0011897 268.1132  91.7412  1.86231900 89203
ARIRANG-3 (KOMPSAT-3)   
1 38338U 12025B   25172.50976853  .00000336  00000+0  77472-4 0  9997
2 38338  98.3068 126.1183 0006614 139.0671 221.1028 14.61433873698747
HORYU-2                 
1 38340U 12025D   25171.73921883  .00002548  00000+0  28590-3 0  9990
2 38340  98.1797 286.7905 0007332 283.3442  76.6955 14.87712573705330
CSSWE                   
1 38761U 12048D   25172.37189211  .00009704  00000+0  33005-3 0  9992
2 38761  64.6630 216.5466 0113603 271.8380  86.9740 15.24927847 61038
CP5                     
1 38763U 12048F   25171.52846634  .00006649  00000+0  28394-3 0  9999
2 38763  64.6561 257.2387 0128792 275.9107  82.7350 15.16490852 61723
METOP-B                 
1 38771U 12049A   25172.50418505  .00000072  00000+0  52564-4 0  9991
2 38771  98.5762 226.3857 0000778  54.4509 305.6741 14.21466202662016
SJ-9A                   
1 38860U 12056A   25172.45958159  .00000964  00000+0  12003-3 0  9999
2 38860  97.6254 153.7868 0026334   8.1478 352.0160 14.84426906685262
COSMOS 2484             
1 39059U 13001C   25172.53218551  .00000005  00000+0 -36763-4 0  9992
2 39059  82.5020  86.1681 0027444  98.6300 261.7891 12.42923722563969
SARAL                   
1 39086U 13009A   25171.92425069  .00000082  00000+0  46046-4 0  9995
2 39086  98.5534 358.1178 0000691 286.2501  73.8607 14.32685715643876
AAUSAT 3                
1 39087U 13009B   25172.31682413  .00000516  00000+0  18012-3 0  9991
2 39087  98.3666 359.5658 0010886 210.4086 149.6472 14.39245719645577
STRAND-1                
1 39090U 13009E   25171.95673289  .00000231  00000+0  92485-4 0  9996
2 39090  98.3826 356.3540 0007795 224.9405 135.1151 14.36826276645208
BRITE-AUSTRIA           
1 39091U 13009F   25172.45393935  .00000154  00000+0  67194-4 0  9993
2 39091  98.3884 356.0901 0009230 233.2589 126.7750 14.36315800645277
UNIBRITE                
1 39092U 13009G   25171.24957022  .00000156  00000+0  68234-4 0  9991
2 39092  98.3924 354.9370 0008142 232.5266 127.5181 14.36186939645035
AIST-2 (RS-43)          
1 39133U 13015D   25172.50831853  .00003518  00000+0  16551-3 0  9996
2 39133  64.8712 351.8419 0031287 278.7957  80.9628 15.20913172669393
GAOFEN-1                
1 39150U 13018A   25172.53767448  .00000468  00000+0  74441-4 0  9993
2 39150  97.9497 246.0721 0017148 352.6418   7.4537 14.76478685655061
NEE-01 PEGASO           
1 39151U 13018B   25172.32952249  .00001517  00000+0  15981-3 0  9995
2 39151  98.0744 301.4427 0011968 271.2103  88.7743 14.90886160656899
TURKSAT-3USAT           
1 39152U 13018C   25172.47649583  .00002100  00000+0  20680-3 0  9997
2 39152  97.8092 260.4061 0012028 215.2658 144.7767 14.93105068657212
CUBEBUG-1 (CAPITAN BETO)
1 39153U 13018D   25172.35781883  .00002134  00000+0  20684-3 0  9996
2 39153  98.1208 313.2201 0011169 258.8659 101.1304 14.93806760657219
PROBA-V                 
1 39159U 13021A   25172.40484227  .00000081  00000+0  53637-4 0  9998
2 39159  98.3207 164.6502 0005379 105.0860 255.0915 14.23489972629784
ESTCUBE 1               
1 39161U 13021C   25172.44887066  .00001243  00000+0  17174-3 0  9999
2 39161  97.7799 233.5986 0009988 108.9829 251.2467 14.79773310651682
ARIRANG-5 (KOMPSAT-5)   
1 39227U 13042A   25172.49106023  .00000576  00000+0  45446-4 0  9999
2 39227  97.6191 359.2270 0001056 332.7090  27.4080 15.04520169649689
GONETS-M 5              
1 39249U 13048A   25171.84186828  .00000030  00000+0  14347-3 0  9998
2 39249  82.4808 208.6233 0014789 281.0077  78.9339 12.42865630533992
GONETS-M 7              
1 39251U 13048C   25172.45675171  .00000038  00000+0  20280-3 0  9994
2 39251  82.4876 210.9737 0015600 280.6894  79.2429 12.42898076534209
FENGYUN 3C              
1 39260U 13052A   25172.52227776  .00000061  00000+0  52282-4 0  9995
2 39260  98.4545 158.8978 0014415 346.7893  13.2902 14.15630482607608
CASSIOPE                
1 39265U 13055A   25171.84215359  .00019321 -63970-6  30090-3 0  9995
2 39265  80.9407 136.1098 0390204 176.3717 184.0493 14.98225732613083
APRIZESAT 7             
1 39416U 13066A   25171.73623387  .00001088  00000+0  11683-3 0  9992
2 39416  97.7217 126.6748 0036082 331.4965  28.4279 14.90159124627375
ZACUBE-1 (TSHEPISOSAT)  
1 39417U 13066B   25172.35268091  .00003782  00000+0  32952-3 0  9994
2 39417  97.7796 129.3027 0044354  15.2025 345.0517 14.96752793626675
APRIZESAT 8             
1 39425U 13066K   25171.34056949  .00001014  00000+0  11858-3 0  9996
2 39425  97.7767 120.2343 0047988  37.7986 322.6584 14.86487697625899
CINEMA-3 (KHUSAT-2)     
1 39426U 13066L   25172.19297398  .00001070  00000+0  15015-3 0  9997
2 39426  97.8461  89.1034 0091212 301.5742  57.6588 14.76759340621412
TRITON-1                
1 39427U 13066M   25172.51259972  .00002152  00000+0  27689-3 0  9992
2 39427  97.8365  85.9841 0093606 328.6670  30.8983 14.79139969620913
DELFI-N3XT              
1 39428U 13066N   25172.25832460  .00004947  00000+0  50450-3 0  9999
2 39428  97.8349  89.7788 0083574 323.2268  36.3233 14.88541110620997
GOMX-1                  
1 39430U 13066Q   25172.55348174  .00001455  00000+0  23153-3 0  9990
2 39430  97.6825  30.4827 0132989 153.5336 207.2743 14.67678496617164
BRITE-PL1 (LEM)         
1 39431U 13066R   25172.33211290  .00000483  00000+0  10620-3 0  9990
2 39431  97.7560 306.5059 0193649  53.9119 307.9838 14.50613054611807
ICUBE-1                 
1 39432U 13066S   25171.68738747  .00007656  00000+0  41230-3 0  9999
2 39432  97.5356 151.7637 0021967 146.5049 213.7577 15.14891818629490
HUMSAT-D                
1 39433U 13066T   25171.90342704  .00025021  00000+0  71422-3 0  9991
2 39433  97.5017 167.9860 0012794  80.3525 279.9164 15.35939204630813
VELOX-PII               
1 39438U 13066Y   25172.32418950  .00002413  00000+0  24846-3 0  9998
2 39438  97.8297 120.1825 0057852  96.5845 264.1963 14.89988256625176
FIRST-MOVE              
1 39439U 13066Z   25172.35541872  .00021852  00000+0  76601-3 0  9996
2 39439  97.7422 147.1539 0022565 309.6918  50.2331 15.29234647627807
CUBEBUG-2 (LO-74)       
1 39440U 13066AA  25171.75854114  .00002015  00000+0  20735-3 0  9994
2 39440  97.8496 116.2415 0062873 141.9731 218.5950 14.89996290623106
NEE-02 KRYSAOR          
1 39441U 13066AB  25171.57298842  .00001268  00000+0  15116-3 0  9991
2 39441  97.8561 109.7688 0068999 172.9633 187.2567 14.84401548623679
FUNCUBE-1 (AO-73)       
1 39444U 13066AE  25172.53509598  .00004413  00000+0  33111-3 0  9994
2 39444  97.7815 134.4974 0041725 349.2016  10.8309 15.02484456625978
HINCUBE                 
1 39445U 13066AF  25171.71980177  .00005427  00000+0  41627-3 0  9997
2 39445  97.7448 132.7900 0039747 358.1643   1.9428 15.01601566625163
UWE-3                   
1 39446U 13066AG  25171.59553847  .00003302  00000+0  31430-3 0  9995
2 39446  97.8236 122.4574 0054779  82.8232 277.9211 14.92974346624140
SMDC ONE 2.4            
1 39469U 13072H   25171.90461696  .00008228  00000+0  41214-3 0  9995
2 39469 120.4965  49.0888 0172822 348.4525  11.2609 15.06423142 63174
CP8 (IPEX)              
1 39471U 13072K   25171.51925205  .00004200  00000+0  25639-3 0  9995
2 39471 120.4725  12.7059 0185488 338.5588  20.7788 14.99742501 60825
COSMOS 2488             
1 39483U 13076A   25172.49000217  .00000034  00000+0  17113-3 0  9996
2 39483  82.4847  33.4767 0019224 158.9953 201.1921 12.42863740521270
COSMOS 2489             
1 39484U 13076B   25171.89894430  .00000037  00000+0  19540-3 0  9997
2 39484  82.4883  35.1120 0020952 160.8299 199.3573 12.42864426521068
COSMOS 2490             
1 39485U 13076C   25171.87019583  .00000016  00000+0  46438-4 0  9998
2 39485  82.4831  33.3537 0020879 177.0439 183.0768 12.42862483520996
AIST-1 (RS-41)          
1 39492U 13078C   25172.54603485  .00001186  00000+0  10702-3 0  9996
2 39492  82.4163 259.8167 0018345  49.2696 311.0114 14.94543541623684
KAZEOSAT 1              
1 39731U 14024A   25172.49119085  .00000130  00000+0  52698-4 0  9995
2 39731  98.3594 248.1289 0001380  87.3562 272.7785 14.42027672586620
COSMOS 2496             
1 39761U 14028A   25172.15258358  .00000028  00000+0  12914-3 0  9994
2 39761  82.4462 334.8563 0020437 145.3615 214.8800 12.42890795502734
COSMOS 2497             
1 39762U 14028B   25171.88497454  .00000041  00000+0  22588-3 0  9999
2 39762  82.4510 336.5682 0020985 140.7818 219.4787 12.42862871502630
